SL-16 R/B               
1 22285U 92093B   25316.56748916  .00000398  00000+0  22825-3 0  9996
2 22285  71.0215 250.1300 0002818 154.7205 205.4056 14.15423976696589
COSMOS 2228             
1 22286U 92094A   25316.80450988  .00004893  00000+0  42707-3 0  9999
2 22286  82.5193 349.1753 0017322 340.4494  19.6061 14.96529272758577
SL-16 R/B               
1 22566U 93016B   25316.66692788  .00000309  00000+0  18330-3 0  9998
2 22566  71.0057 100.9617 0009127 152.4184 207.7425 14.15280330685611
COSMOS 2242             
1 22626U 93024A   25316.53709226  .00004660  00000+0  41316-3 0  9990
2 22626  82.5214  18.7058 0015858 344.3709  15.7021 14.95924498762879
SL-16 R/B               
1 22803U 93059B   25316.24061531  .00000388  00000+0  21583-3 0  9990
2 22803  70.9899 258.7977 0016119  22.0003 338.1810 14.17205036662893
ARIANE 40 R/B           
1 22830U 93061H   25316.58958536  .00000545  00000+0  21583-3 0  9995
2 22830  98.5112  22.6630 0009612 270.5889  89.4194 14.32772790677332
COSMOS 2278             
1 23087U 94023A   25316.68986166  .00000490  00000+0  28075-3 0  9992
2 23087  71.0540  59.8762 0010023 217.9336 142.1081 14.14337591628262
SL-16 R/B               
1 23088U 94023B   25316.29495438 -.00000134  00000+0 -44494-4 0  9998
2 23088  70.9996 317.4228 0001390 164.8083 195.3081 14.14992660629481
SL-16 R/B               
1 23343U 94074B   25316.86549947  .00001059  00000+0  14915-3 0  9995
2 23343  97.7242 347.3521 0005340 234.6214 298.2446 14.79238249669978
SL-16 R/B               
1 23405U 94077B   25316.53435840  .00000340  00000+0  19811-3 0  9999
2 23405  70.9829 238.9553 0003943 309.1872  50.8901 14.15544641599657
ARIANE 40+ R/B          
1 23561U 95021B   25316.66248159  .00000742  00000+0  25118-3 0  9994
2 23561  98.4687  24.6098 0007694 127.9085  33.9723 14.39660351602405
SL-16 R/B               
1 23705U 95058B   25316.60618700 -.00000018  00000+0  15203-4 0  9993
2 23705  71.0226  66.0666 0014849 294.1505  65.8065 14.15476699551282
